CORAL                   
1 67684U 98067YA  26080.52289188  .00108459  00000+0  14993-2 0  9994
2 67684  51.6312  12.4272 0012074 217.4243 142.5908 15.56214538  6630
GXIBA-1                 
1 67685U 98067YB  26080.11495484  .00047255  00000+0  74016-3 0  9997
2 67685  51.6326  14.9523 0011665 223.8015 136.2051 15.53173336  6563
UITMSAT-2               
1 67686U 98067YC  26079.20424217  .00036971  00000+0  56833-3 0  9992
2 67686  51.6331  19.3725 0008503 189.8163 170.2663 15.53839493  6420
HMU-SAT2                
1 67687U 98067YD  26080.11864851  .00045244  00000+0  71638-3 0  9990
2 67687  51.6326  14.9790 0008241 196.2419 163.8308 15.52930306  6487
LEOPARD                 
1 67688U 98067YE  26080.10933344  .00050861  00000+0  78512-3 0  9993
2 67688  51.6330  14.9166 0008406 194.0087 166.0671 15.53580320  6486
CREW DRAGON 12          
1 67796U 26031A   26080.51758049  .00014080  00000+0  26848-3 0  9995
2 67796  51.6347  13.8885 0006310 215.8915 144.1650 15.48422342558089
